{
  "type": "FeatureCollection",
  "features": [
    {
      "type": "Feature",
      "properties": {
        "norad_id": 60182,
        "name": "ALOS-4 (DAICHI-4)",
        "group": "resource",
        "lat": 52.70615414237107,
        "lon": 79.88415480358894,
        "alt_km": 625.3633540667215,
        "timestamp": "2025-12-21T16:47:54.386837+00:00",
        "meta_object_name": "ALOS-4 (DAICHI-4)",
        "meta_object_id": "2024-123A",
        "meta_epoch": "2025-12-20T19:27:23.067360",
        "meta_mean_motion": 14.79476697,
        "meta_eccentricity": 0.00013881,
        "meta_inclination": 97.9224,
        "meta_ra_of_asc_node": 89.5428,
        "meta_arg_of_pericenter": 101.339,
        "meta_mean_anomaly": 258.7977,
        "meta_ephemeris_type": 0,
        "meta_classification_type": "U",
        "meta_norad_cat_id": 60182,
        "meta_element_set_no": 999,
        "meta_rev_at_epoch": 7950,
        "meta_bstar": 0.00018374076,
        "meta_mean_motion_dot": 1.321e-05,
        "meta_mean_motion_ddot": 0,
        "tle_line1": "1 60182U 24123A   25354.81068365  .00001321  00000+0  18374-3 0  9997",
        "tle_line2": "2 60182  97.9224  89.5428 0001388 101.3390 258.7977 14.79476697 79501"
      },
      "geometry": {
        "type": "Point",
        "coordinates": [
          79.88415480358894,
          52.70615414237107
        ]
      }
    },
    {
      "type": "Feature",
      "properties": {
        "norad_id": 60452,
        "name": "LEGION 3",
        "group": "resource",
        "lat": -43.486703931388796,
        "lon": 153.74103255372256,
        "alt_km": 511.3998987571231,
        "timestamp": "2025-12-21T16:47:54.386847+00:00",
        "meta_object_name": "LEGION 3",
        "meta_object_id": "2024-146A",
        "meta_epoch": "2025-12-21T04:35:55.463424",
        "meta_mean_motion": 15.15842235,
        "meta_eccentricity": 0.0015669,
        "meta_inclination": 45.0016,
        "meta_ra_of_asc_node": 264.8217,
        "meta_arg_of_pericenter": 244.0997,
        "meta_mean_anomaly": 115.8266,
        "meta_ephemeris_type": 0,
        "meta_classification_type": "U",
        "meta_norad_cat_id": 60452,
        "meta_element_set_no": 999,
        "meta_rev_at_epoch": 7501,
        "meta_bstar": 0.00019211,
        "meta_mean_motion_dot": 3.481e-05,
        "meta_mean_motion_ddot": 0,
        "tle_line1": "1 60452U 24146A   25355.19161416  .00003481  00000+0  19211-3 0  9995",
        "tle_line2": "2 60452  45.0016 264.8217 0015669 244.0997 115.8266 15.15842235 75015"
      },
      "geometry": {
        "type": "Point",
        "coordinates": [
          153.74103255372256,
          -43.486703931388796
        ]
      }
    },
    {
      "type": "Feature",
      "properties": {
        "norad_id": 60453,
        "name": "LEGION 4",
        "group": "resource",
        "lat": -43.1917805541349,
        "lon": -116.38277200159919,
        "alt_km": 523.3161231616823,
        "timestamp": "2025-12-21T16:47:54.386859+00:00",
        "meta_object_name": "LEGION 4",
        "meta_object_id": "2024-146B",
        "meta_epoch": "2025-12-21T10:55:54.687648",
        "meta_mean_motion": 15.15907588,
        "meta_eccentricity": 0.0008593,
        "meta_inclination": 45.0392,
        "meta_ra_of_asc_node": 355.1829,
        "meta_arg_of_pericenter": 358.3798,
        "meta_mean_anomaly": 1.7052,
        "meta_ephemeris_type": 0,
        "meta_classification_type": "U",
        "meta_norad_cat_id": 60453,
        "meta_element_set_no": 999,
        "meta_rev_at_epoch": 7390,
        "meta_bstar": 0.00022955,
        "meta_mean_motion_dot": 4.212e-05,
        "meta_mean_motion_ddot": 0,
        "tle_line1": "1 60453U 24146B   25355.45549407  .00004212  00000+0  22955-3 0  9997",
        "tle_line2": "2 60453  45.0392 355.1829 0008593 358.3798   1.7052 15.15907588 73907"
      },
      "geometry": {
        "type": "Point",
        "coordinates": [
          -116.38277200159919,
          -43.1917805541349
        ]
      }
    },
    {
      "type": "Feature",
      "properties": {
        "norad_id": 60989,
        "name": "SENTINEL-2C",
        "group": "resource",
        "lat": 49.823621998120515,
        "lon": 57.76857831465779,
        "alt_km": 783.7980790001611,
        "timestamp": "2025-12-21T16:47:54.386869+00:00",
        "meta_object_name": "SENTINEL-2C",
        "meta_object_id": "2024-157A",
        "meta_epoch": "2025-12-21T11:31:40.274400",
        "meta_mean_motion": 14.30820836,
        "meta_eccentricity": 0.0001197,
        "meta_inclination": 98.5672,
        "meta_ra_of_asc_node": 67.8366,
        "meta_arg_of_pericenter": 95.324,
        "meta_mean_anomaly": 264.8079,
        "meta_ephemeris_type": 0,
        "meta_classification_type": "U",
        "meta_norad_cat_id": 60989,
        "meta_element_set_no": 999,
        "meta_rev_at_epoch": 6757,
        "meta_bstar": 6.4988e-05,
        "meta_mean_motion_dot": 1.27e-06,
        "meta_mean_motion_ddot": 0,
        "tle_line1": "1 60989U 24157A   25355.48032725  .00000127  00000+0  64988-4 0  9990",
        "tle_line2": "2 60989  98.5672  67.8366 0001197  95.3240 264.8079 14.30820836 67574"
      },
      "geometry": {
        "type": "Point",
        "coordinates": [
          57.76857831465779,
          49.823621998120515
        ]
      }
    },
    {
      "type": "Feature",
      "properties": {
        "norad_id": 61735,
        "name": "IONOSFERA-M 1",
        "group": "resource",
        "lat": 55.07398549584421,
        "lon": -147.24747554155545,
        "alt_km": 810.6497825086626,
        "timestamp": "2025-12-21T16:47:54.386880+00:00",
        "meta_object_name": "IONOSFERA-M 1",
        "meta_object_id": "2024-199A",
        "meta_epoch": "2025-12-21T13:09:36.740160",
        "meta_mean_motion": 14.22715871,
        "meta_eccentricity": 5.3e-05,
        "meta_inclination": 98.7398,
        "meta_ra_of_asc_node": 225.3287,
        "meta_arg_of_pericenter": 9.9293,
        "meta_mean_anomaly": 350.1896,
        "meta_ephemeris_type": 0,
        "meta_classification_type": "U",
        "meta_norad_cat_id": 61735,
        "meta_element_set_no": 999,
        "meta_rev_at_epoch": 10244,
        "meta_bstar": 4.2057e-05,
        "meta_mean_motion_dot": 5e-07,
        "meta_mean_motion_ddot": 0,
        "tle_line1": "1 61735U 24199A   25355.54834190  .00000050  00000+0  42057-4 0  9997",
        "tle_line2": "2 61735  98.7398 225.3287 0000530   9.9293 350.1896 14.22715871102448"
      },
      "geometry": {
        "type": "Point",
        "coordinates": [
          -147.24747554155545,
          55.07398549584421
        ]
      }
    },
    {
      "type": "Feature",
      "properties": {
        "norad_id": 61736,
        "name": "IONOSFERA-M 2",
        "group": "resource",
        "lat": -57.83188877963181,
        "lon": 31.23477843937245,
        "alt_km": 824.2373701172737,
        "timestamp": "2025-12-21T16:47:54.386890+00:00",
        "meta_object_name": "IONOSFERA-M 2",
        "meta_object_id": "2024-199B",
        "meta_epoch": "2025-12-21T13:59:29.107392",
        "meta_mean_motion": 14.22718046,
        "meta_eccentricity": 0.0001816,
        "meta_inclination": 98.7396,
        "meta_ra_of_asc_node": 225.2755,
        "meta_arg_of_pericenter": 99.3005,
        "meta_mean_anomaly": 260.8378,
        "meta_ephemeris_type": 0,
        "meta_classification_type": "U",
        "meta_norad_cat_id": 61736,
        "meta_element_set_no": 999,
        "meta_rev_at_epoch": 10557,
        "meta_bstar": 4.3528e-05,
        "meta_mean_motion_dot": 5.3e-07,
        "meta_mean_motion_ddot": 0,
        "tle_line1": "1 61736U 24199B   25355.58297578  .00000053  00000+0  43528-4 0  9992",
        "tle_line2": "2 61736  98.7396 225.2755 0001816  99.3005 260.8378 14.22718046105574"
      },
      "geometry": {
        "type": "Point",
        "coordinates": [
          31.23477843937245,
          -57.83188877963181
        ]
      }
    },
    {
      "type": "Feature",
      "properties": {
        "norad_id": 63772,
        "name": "BIOMASS",
        "group": "resource",
        "lat": 72.39967195222177,
        "lon": 154.0131675637073,
        "alt_km": 661.1770604086487,
        "timestamp": "2025-12-21T16:47:54.386900+00:00",
        "meta_object_name": "BIOMASS",
        "meta_object_id": "2025-090A",
        "meta_epoch": "2025-12-21T06:38:34.325088",
        "meta_mean_motion": 14.67533283,
        "meta_eccentricity": 0.0001162,
        "meta_inclination": 98.0694,
        "meta_ra_of_asc_node": 180.1621,
        "meta_arg_of_pericenter": 85.4071,
        "meta_mean_anomaly": 274.7266,
        "meta_ephemeris_type": 0,
        "meta_classification_type": "U",
        "meta_norad_cat_id": 63772,
        "meta_element_set_no": 999,
        "meta_rev_at_epoch": 3459,
        "meta_bstar": 0.000187,
        "meta_mean_motion_dot": 1.012e-05,
        "meta_mean_motion_ddot": 0,
        "tle_line1": "1 63772U 25090A   25355.27678617  .00001012  00000+0  18700-3 0  9997",
        "tle_line2": "2 63772  98.0694 180.1621 0001162  85.4071 274.7266 14.67533283 34594"
      },
      "geometry": {
        "type": "Point",
        "coordinates": [
          154.0131675637073,
          72.39967195222177
        ]
      }
    }
  ]
}